QIANFAN-73              
1 63159U 25046A   25292.01961069  .00000166  00000+0  23910-3 0  9993
2 63159  88.9787 325.6893 0012904 283.4085  76.5627 13.50970688 40021
QIANFAN-74              
1 63160U 25046B   25292.00314462  .00000135  00000+0  19128-3 0  9995
2 63160  88.9788 325.5794 0002151  98.3189 261.8206 13.50972465 40087
QIANFAN-75              
1 63161U 25046C   25291.99071355  .00000201  00000+0  29284-3 0  9992
2 63161  88.9788 325.8135 0014024 286.8382  73.1230 13.50980542 39951
QIANFAN-76              
1 63162U 25046D   25291.98669097  .00000095  00000+0  12879-3 0  9991
2 63162  88.9789 325.7948 0011583 287.8878  72.1009 13.50972389 39966
QIANFAN-77              
1 63163U 25046E   25291.99866807  .00000381  00000+0  26801-3 0  9999
2 63163  88.9785 324.2501 0012731 247.6956 112.2871 13.96073391 40813
QIANFAN-78              
1 63164U 25046F   25292.02786249  .00000133  00000+0  18815-3 0  9997
2 63164  88.9788 325.6551 0012987 290.1552  69.8201 13.50972922 40042
QIANFAN-79              
1 63165U 25046G   25291.98248009  .00000167  00000+0  24074-3 0  9990
2 63165  88.9792 325.7652 0012660 288.3372  71.6402 13.50972199 39989
QIANFAN-80              
1 63166U 25046H   25291.99905103  .00000185  00000+0  26772-3 0  9994
2 63166  88.9789 325.4718 0011691 293.6542  66.3382 13.50973075 40149
